NORAD_CAT_ID,OBJECT_NAME,OBJECT_TYPE,EPOCH,MEAN_MOTION,ECCENTRICITY,INCLINATION,RA_OF_ASC_NODE,ARG_OF_PERICENTER,MEAN_ANOMALY,BSTAR,MEAN_MOTION_DOT,MEAN_MOTION_DDOT,TLE_LINE0,TLE_LINE1,TLE_LINE2,SEMIMAJOR_AXIS,PERIOD,APOGEE,PERIGEE,DECAYED
53797.0,STARLINK-4723,PAYLOAD,2023-09-22 18:06:30,15.08878496,0.0001457,53.217,349.1617,62.9403,297.1738,0.0010106,0.00015849,0.0,0 STARLINK-4723,1 53797U 22111AA  23265.75451476  .00015849  00000-0  10106-2 0  9992,2 53797  53.2170 349.1617 0001457  62.9403 297.1738 15.08878496 57974,6917.763,95.435,540.636,538.62,0.0
53797.0,STARLINK-4723,PAYLOAD,2023-09-22 22:52:39,15.08843762,5.13e-05,53.2172,348.2707,61.4156,298.6887,-0.00038186,-6.36e-05,0.0,0 STARLINK-4723,1 53797U 22111AA  23265.95323586 -.00006360  00000-0 -38186-3 0  9993,2 53797  53.2172 348.2707 0000513  61.4156 298.6887 15.08843762 57213,6917.869,95.437,540.089,539.379,0.0
53797.0,STARLINK-4723,PAYLOAD,2023-09-23 13:11:07,15.08852389,0.0001393,53.217,345.5933,73.2431,286.8714,0.0004499,6.882e-05,0.0,0 STARLINK-4723,1 53797U 22111AA  23266.54939688  .00006882  00000-0  44990-3 0  9992,2 53797  53.2170 345.5933 0001393  73.2431 286.8714 15.08852389 58096,6917.843,95.437,540.671,538.744,0.0
53797.0,STARLINK-4723,PAYLOAD,2023-09-24 09:51:09,15.0884104,0.0001566,53.2173,341.7281,74.643,285.4735,0.00043921,6.709e-05,0.0,0 STARLINK-4723,1 53797U 22111AA  23267.41052305  .00006709  00000-0  43921-3 0  9992,2 53797  53.2173 341.7281 0001566  74.6430 285.4735 15.08841040 57436,6917.877,95.437,540.826,538.659,0.0
53797.0,STARLINK-4723,PAYLOAD,2023-09-24 11:26:32,15.08839392,0.0001763,53.2174,341.4284,66.3702,293.7475,0.00035086,5.3e-05,0.0,0 STARLINK-4723,1 53797U 22111AA  23267.47676388  .00005300  00000-0  35086-3 0  9990,2 53797  53.2174 341.4284 0001763  66.3702 293.7475 15.08839392 58235,6917.882,95.438,540.967,538.528,0.0
53797.0,STARLINK-4723,PAYLOAD,2023-09-24 16:12:41,15.08851283,0.0001176,53.2177,340.5361,71.227,288.885,0.0007275,0.00011313,0.0,0 STARLINK-4723,1 53797U 22111AA  23267.67547956  .00011313  00000-0  72750-3 0  9990,2 53797  53.2177 340.5361 0001176  71.2270 288.8850 15.08851283 58265,6917.846,95.437,540.524,538.897,0.0
53797.0,STARLINK-4723,PAYLOAD,2023-09-25 08:06:33,15.08855818,0.0001471,53.2173,337.5655,80.7199,279.3959,0.0014766,0.000233,0.0,0 STARLINK-4723,1 53797U 22111AA  23268.33788218  .00023300  00000-0  14766-2 0  9993,2 53797  53.2173 337.5655 0001471  80.7199 279.3959 15.08855818 57572,6917.832,95.437,540.715,538.679,0.0
53797.0,STARLINK-4723,PAYLOAD,2023-09-25 11:17:19,15.08857336,0.0001461,53.2176,336.9692,88.6304,271.4855,0.0016182,0.00025572,0.0,0 STARLINK-4723,1 53797U 22111AA  23268.47036141  .00025572  00000-0  16182-2 0  9996,2 53797  53.2176 336.9692 0001461  88.6304 271.4855 15.08857336 58388,6917.827,95.436,540.703,538.682,0.0
53797.0,STARLINK-4723,PAYLOAD,2023-09-25 16:03:28,15.08872883,0.0001478,53.2179,336.0777,86.9564,273.1597,0.0019069,0.00030218,0.0,0 STARLINK-4723,1 53797U 22111AA  23268.66907779  .00030218  00000-0  19069-2 0  9991,2 53797  53.2179 336.0777 0001478  86.9564 273.1597 15.08872883 58413,6917.78,95.435,540.667,538.622,0.0
53797.0,STARLINK-4723,PAYLOAD,2023-09-26 11:08:06,15.08847019,0.0001679,53.2186,332.5098,86.0548,274.0637,0.00078775,0.00012274,0.0,0 STARLINK-4723,1 53797U 22111AA  23269.46396377  .00012274  00000-0  78775-3 0  9998,2 53797  53.2186 332.5098 0001679  86.0548 274.0637 15.08847019 57747,6917.859,95.437,540.885,538.562,0.0
53797.0,STARLINK-4723,PAYLOAD,2023-09-26 23:51:11,15.08844777,0.000176,53.2173,330.1327,84.6503,275.469,0.00070311,0.00010921,0.0,0 STARLINK-4723,1 53797U 22111AA  23269.99388591  .00010921  00000-0  70311-3 0  9990,2 53797  53.2173 330.1327 0001760  84.6503 275.4690 15.08844777 57829,6917.866,95.437,540.948,538.513,0.0
53797.0,STARLINK-4723,PAYLOAD,2023-09-27 10:58:53,15.08847991,0.0001646,53.2176,328.0518,84.2298,275.8882,0.00049684,7.63e-05,0.0,0 STARLINK-4723,1 53797U 22111AA  23270.45756443  .00007630  00000-0  49684-3 0  9990,2 53797  53.2176 328.0518 0001646  84.2298 275.8882 15.08847991 58683,6917.856,95.437,540.86,538.582,0.0
53797.0,STARLINK-4723,PAYLOAD,2023-09-28 09:14:18,15.08833686,0.0001715,53.218,323.8908,94.5427,265.5761,2.534e-05,1.15e-06,0.0,0 STARLINK-4723,1 53797U 22111AA  23271.38493080  .00000115  00000-0  25340-4 0  9993,2 53797  53.2180 323.8908 0001715  94.5427 265.5761 15.08833686 58036,6917.9,95.438,540.951,538.578,0.0
53797.0,STARLINK-4723,PAYLOAD,2023-09-29 10:40:28,15.08842626,0.000164,53.2168,319.131,82.7641,277.3537,0.00029563,4.42e-05,0.0,0 STARLINK-4723,1 53797U 22111AA  23272.44477345  .00004420  00000-0  29563-3 0  9990,2 53797  53.2168 319.1310 0001640  82.7641 277.3537 15.08842626 58194,6917.872,95.437,540.872,538.603,0.0
53797.0,STARLINK-4723,PAYLOAD,2023-09-29 12:15:51,15.08846232,0.0001619,53.2163,318.8304,72.3673,287.7496,0.00038938,5.915e-05,0.0,0 STARLINK-4723,1 53797U 22111AA  23272.51101276  .00005915  00000-0  38938-3 0  9991,2 53797  53.2163 318.8304 0001619  72.3673 287.7496 15.08846232 58998,6917.861,95.437,540.846,538.606,0.0
53797.0,STARLINK-4723,PAYLOAD,2023-09-30 10:31:14,15.08862016,0.0001717,53.2163,314.6639,76.2528,283.8655,0.00055592,8.576e-05,0.0,0 STARLINK-4723,1 53797U 22111AA  23273.43836412  .00008576  00000-0  55592-3 0  9991,2 53797  53.2163 314.6639 0001717  76.2528 283.8655 15.08862016 58345,6917.813,95.436,540.866,538.49,0.0
53797.0,STARLINK-4723,PAYLOAD,2023-10-01 02:25:05,15.08851995,0.00018,53.2144,311.6986,83.4241,276.6956,0.00014037,1.947e-05,0.0,0 STARLINK-4723,1 53797U 22111AA  23274.10076311  .00001947  00000-0  14037-3 0  9994,2 53797  53.2144 311.6986 0001800  83.4241 276.6956 15.08851995 58440,6917.844,95.437,540.954,538.464,0.0
53797.0,STARLINK-4723,PAYLOAD,2023-10-01 08:46:38,15.0884229,0.000181,53.2154,310.5039,95.9803,264.1395,-1.9509e-05,-5.99e-06,0.0,0 STARLINK-4723,1 53797U 22111AA  23274.36572409 -.00000599  00000-0 -19509-4 0  9995,2 53797  53.2154 310.5039 0001810  95.9803 264.1395 15.08842290 58482,6917.873,95.437,540.991,538.486,0.0
53797.0,STARLINK-4723,PAYLOAD,2023-10-01 19:54:20,15.08842417,0.0001913,53.2155,308.4232,77.878,282.2427,2.7373e-05,1.48e-06,0.0,0 STARLINK-4723,1 53797U 22111AA  23274.82940824  .00000148  00000-0  27373-4 0  9992,2 53797  53.2155 308.4232 0001913  77.8780 282.2427 15.08842417 59345,6917.873,95.437,541.061,538.415,0.0
53797.0,STARLINK-4723,PAYLOAD,2023-10-02 02:15:53,15.08825976,0.0001816,53.2169,307.2334,79.9272,280.1925,-0.00024352,-4.16e-05,0.0,0 STARLINK-4723,1 53797U 22111AA  23275.09437404 -.00004160  00000-0 -24352-3 0  9990,2 53797  53.2169 307.2334 0001816  79.9272 280.1925 15.08825976 58598,6917.923,95.438,541.045,538.532,0.0
53797.0,STARLINK-4723,PAYLOAD,2023-10-02 19:45:08,15.0883867,0.0001684,53.2162,303.961,91.942,268.1765,0.0001947,2.812e-05,0.0,0 STARLINK-4723,1 53797U 22111AA  23275.82301480  .00002812  00000-0  19470-3 0  9990,2 53797  53.2162 303.9610 0001684  91.9420 268.1765 15.08838670 58709,6917.884,95.438,540.914,538.584,0.0
53797.0,STARLINK-4723,PAYLOAD,2023-10-03 11:38:59,15.08865073,0.000171,53.2161,300.987,87.6316,272.4872,0.0011388,0.00017895,0.0,0 STARLINK-4723,1 53797U 22111AA  23276.48541170  .00017895  00000-0  11388-2 0  9991,2 53797  53.2161 300.9870 0001710  87.6316 272.4872 15.08865073 58804,6917.804,95.436,540.852,538.486,0.0
53797.0,STARLINK-4723,PAYLOAD,2023-10-03 13:14:22,15.08866162,0.0001757,53.2162,300.6896,88.5548,271.5645,0.0010413,0.00016335,0.0,0 STARLINK-4723,1 53797U 22111AA  23276.55165043  .00016335  00000-0  10413-2 0  9996,2 53797  53.2162 300.6896 0001757  88.5548 271.5645 15.08866162 59605,6917.8,95.436,540.881,538.45,0.0
53797.0,STARLINK-4723,PAYLOAD,2023-10-04 08:19:00,15.08850704,0.0001555,53.2162,297.1205,90.9787,269.1383,0.000498,7.649e-05,0.0,0 STARLINK-4723,1 53797U 22111AA  23277.34653223  .00007649  00000-0  49800-3 0  9997,2 53797  53.2162 297.1205 0001555  90.9787 269.1383 15.08850704 58939,6917.848,95.437,540.788,538.637,0.0
53797.0,STARLINK-4723,PAYLOAD,2023-10-04 13:05:09,15.08859527,0.0001647,53.2163,296.2291,94.9387,265.1793,0.00094411,0.00014777,0.0,0 STARLINK-4723,1 53797U 22111AA  23277.54525069  .00014777  00000-0  94411-3 0  9993,2 53797  53.2163 296.2291 0001647  94.9387 265.1793 15.08859527 59751,6917.821,95.436,540.825,538.546,0.0
53797.0,STARLINK-4723,PAYLOAD,2023-10-05 01:48:15,15.08846393,0.0001974,53.2164,293.8501,99.0799,261.0416,0.00064983,0.00010071,0.0,0 STARLINK-4723,1 53797U 22111AA  23278.07517607  .00010071  00000-0  64983-3 0  9995,2 53797  53.2164 293.8501 0001974  99.0799 261.0416 15.08846393 59041,6917.861,95.437,541.091,538.36,0.0
53797.0,STARLINK-4723,PAYLOAD,2023-10-05 12:55:57,15.08855937,0.0001753,53.216,291.7696,91.4571,268.6622,0.00167,0.00026402,0.0,0 STARLINK-4723,1 53797U 22111AA  23278.53885547  .00026402  00000-0  16700-2 0  9995,2 53797  53.2160 291.7696 0001753  91.4571 268.6622 15.08855937 59909,6917.832,95.437,540.909,538.484,0.0
53797.0,STARLINK-4723,PAYLOAD,2023-10-06 04:49:48,15.08838035,0.0001808,53.2157,288.7959,104.8465,255.2728,0.0004462,6.82e-05,0.0,0 STARLINK-4723,1 53797U 22111AA  23279.20125884  .00006820  00000-0  44620-3 0  9996,2 53797  53.2157 288.7959 0001808 104.8465 255.2728 15.08838035 59218,6917.886,95.438,541.002,538.501,0.0
53797.0,STARLINK-4723,PAYLOAD,2023-10-06 11:11:21,15.08852327,0.0001564,53.2163,287.6065,91.7964,268.3207,0.00097927,0.00015337,0.0,0 STARLINK-4723,1 53797U 22111AA  23279.46621805  .00015337  00000-0  97927-3 0  9999,2 53797  53.2163 287.6065 0001564  91.7964 268.3207 15.08852327 60048,6917.843,95.437,540.79,538.626,0.0
53797.0,STARLINK-4723,PAYLOAD,2023-10-07 09:26:45,15.08847055,0.0001806,53.2162,283.4412,78.8158,281.3037,0.00059728,9.232e-05,0.0,0 STARLINK-4723,1 53797U 22111AA  23280.39358114  .00009232  00000-0  59728-3 0  9997,2 53797  53.2162 283.4412 0001806  78.8158 281.3037 15.08847055 59391,6917.859,95.437,540.973,538.474,0.0
